STARLINK-3692           
1 51958U 22025C   26068.17329645 -.00000339  00000+0  66883-6 0  9990
2 51958  53.1631  15.9414 0001402  86.2996 273.8165 15.30182510221092
TRANSPORTER-12 OBJECT AZ
1 62656U 25009AZ  26068.71026235  .00016057  00000+0  54903-3 0  9991
2 62656  97.3981 151.9913 0000987  45.3581 314.7740 15.30349724 63792
